<?xml version="1.0" encoding="UTF-8"?>
<ndm xmlns:xsi="http://www.w3.org/2001/XMLSchema-instance" xsi:noNamespaceSchemaLocation="https://sanaregistry.org/r/ndmxml_unqualified/ndmxml-2.0.0-master-2.0.xsd">
<omm id="CCSDS_OMM_VERS" version="2.0">
<header><CREATION_DATE/><ORIGINATOR/></header><body><segment><metadata><OBJECT_NAME>IRIDIUM 26</OBJECT_NAME><OBJECT_ID>1997-043A</OBJECT_ID><CENTER_NAME>EARTH</CENTER_NAME><REF_FRAME>TEME</REF_FRAME><TIME_SYSTEM>UTC</TIME_SYSTEM><MEAN_ELEMENT_THEORY>SGP4</MEAN_ELEMENT_THEORY></metadata><data><meanElements><EPOCH>2025-11-15T06:27:53.178336</EPOCH><MEAN_MOTION>14.37295963</MEAN_MOTION><ECCENTRICITY>.0001965</ECCENTRICITY><INCLINATION>86.3979</INCLINATION><RA_OF_ASC_NODE>47.1045</RA_OF_ASC_NODE><ARG_OF_PERICENTER>91.2789</ARG_OF_PERICENTER><MEAN_ANOMALY>268.8633</MEAN_ANOMALY></meanElements><tleParameters><EPHEMERIS_TYPE>0</EPHEMERIS_TYPE><CLASSIFICATION_TYPE>U</CLASSIFICATION_TYPE><NORAD_CAT_ID>24903</NORAD_CAT_ID><ELEMENT_SET_NO>999</ELEMENT_SET_NO><REV_AT_EPOCH>47844</REV_AT_EPOCH><BSTAR>.29681E-3</BSTAR><MEAN_MOTION_DOT>.904E-5</MEAN_MOTION_DOT><MEAN_MOTION_DDOT>0</MEAN_MOTION_DDOT></tleParameters></data></segment></body></omm>
<omm id="CCSDS_OMM_VERS" version="2.0">
<header><CREATION_DATE/><ORIGINATOR/></header><body><segment><metadata><OBJECT_NAME>IRIDIUM 22</OBJECT_NAME><OBJECT_ID>1997-043E</OBJECT_ID><CENTER_NAME>EARTH</CENTER_NAME><REF_FRAME>TEME</REF_FRAME><TIME_SYSTEM>UTC</TIME_SYSTEM><MEAN_ELEMENT_THEORY>SGP4</MEAN_ELEMENT_THEORY></metadata><data><meanElements><EPOCH>2025-11-15T07:47:33.121824</EPOCH><MEAN_MOTION>14.36093416</MEAN_MOTION><ECCENTRICITY>.0002004</ECCENTRICITY><INCLINATION>86.3980</INCLINATION><RA_OF_ASC_NODE>50.7508</RA_OF_ASC_NODE><ARG_OF_PERICENTER>96.6358</ARG_OF_PERICENTER><MEAN_ANOMALY>263.5067</MEAN_ANOMALY></meanElements><tleParameters><EPHEMERIS_TYPE>0</EPHEMERIS_TYPE><CLASSIFICATION_TYPE>U</CLASSIFICATION_TYPE><NORAD_CAT_ID>24907</NORAD_CAT_ID><ELEMENT_SET_NO>999</ELEMENT_SET_NO><REV_AT_EPOCH>47846</REV_AT_EPOCH><BSTAR>.27838E-3</BSTAR><MEAN_MOTION_DOT>.829E-5</MEAN_MOTION_DOT><MEAN_MOTION_DDOT>0</MEAN_MOTION_DDOT></tleParameters></data></segment></body></omm>
<omm id="CCSDS_OMM_VERS" version="2.0">
<header><CREATION_DATE/><ORIGINATOR/></header><body><segment><metadata><OBJECT_NAME>DUMMY MASS 1</OBJECT_NAME><OBJECT_ID>1997-048A</OBJECT_ID><CENTER_NAME>EARTH</CENTER_NAME><REF_FRAME>TEME</REF_FRAME><TIME_SYSTEM>UTC</TIME_SYSTEM><MEAN_ELEMENT_THEORY>SGP4</MEAN_ELEMENT_THEORY></metadata><data><meanElements><EPOCH>2025-11-15T08:27:58.055328</EPOCH><MEAN_MOTION>14.87146785</MEAN_MOTION><ECCENTRICITY>.0005834</ECCENTRICITY><INCLINATION>86.3349</INCLINATION><RA_OF_ASC_NODE>65.3767</RA_OF_ASC_NODE><ARG_OF_PERICENTER>351.2984</ARG_OF_PERICENTER><MEAN_ANOMALY>8.8138</MEAN_ANOMALY></meanElements><tleParameters><EPHEMERIS_TYPE>0</EPHEMERIS_TYPE><CLASSIFICATION_TYPE>U</CLASSIFICATION_TYPE><NORAD_CAT_ID>24925</NORAD_CAT_ID><ELEMENT_SET_NO>999</ELEMENT_SET_NO><REV_AT_EPOCH>52759</REV_AT_EPOCH><BSTAR>.10468E-3</BSTAR><MEAN_MOTION_DOT>.968E-5</MEAN_MOTION_DOT><MEAN_MOTION_DDOT>0</MEAN_MOTION_DDOT></tleParameters></data></segment></body></omm>
<omm id="CCSDS_OMM_VERS" version="2.0">
<header><CREATION_DATE/><ORIGINATOR/></header><body><segment><metadata><OBJECT_NAME>DUMMY MASS 2</OBJECT_NAME><OBJECT_ID>1997-048B</OBJECT_ID><CENTER_NAME>EARTH</CENTER_NAME><REF_FRAME>TEME</REF_FRAME><TIME_SYSTEM>UTC</TIME_SYSTEM><MEAN_ELEMENT_THEORY>SGP4</MEAN_ELEMENT_THEORY></metadata><data><meanElements><EPOCH>2025-11-15T06:32:53.813184</EPOCH><MEAN_MOTION>14.86897332</MEAN_MOTION><ECCENTRICITY>.0007059</ECCENTRICITY><INCLINATION>86.3347</INCLINATION><RA_OF_ASC_NODE>67.0497</RA_OF_ASC_NODE><ARG_OF_PERICENTER>1.2830</ARG_OF_PERICENTER><MEAN_ANOMALY>358.8411</MEAN_ANOMALY></meanElements><tleParameters><EPHEMERIS_TYPE>0</EPHEMERIS_TYPE><CLASSIFICATION_TYPE>U</CLASSIFICATION_TYPE><NORAD_CAT_ID>24926</NORAD_CAT_ID><ELEMENT_SET_NO>999</ELEMENT_SET_NO><REV_AT_EPOCH>52735</REV_AT_EPOCH><BSTAR>.10461E-3</BSTAR><MEAN_MOTION_DOT>.962E-5</MEAN_MOTION_DOT><MEAN_MOTION_DDOT>0</MEAN_MOTION_DDOT></tleParameters></data></segment></body></omm>
<omm id="CCSDS_OMM_VERS" version="2.0">
<header><CREATION_DATE/><ORIGINATOR/></header><body><segment><metadata><OBJECT_NAME>IRIDIUM 29</OBJECT_NAME><OBJECT_ID>1997-051A</OBJECT_ID><CENTER_NAME>EARTH</CENTER_NAME><REF_FRAME>TEME</REF_FRAME><TIME_SYSTEM>UTC</TIME_SYSTEM><MEAN_ELEMENT_THEORY>SGP4</MEAN_ELEMENT_THEORY></metadata><data><meanElements><EPOCH>2025-11-15T08:42:17.089920</EPOCH><MEAN_MOTION>14.36625955</MEAN_MOTION><ECCENTRICITY>.0002177</ECCENTRICITY><INCLINATION>86.3942</INCLINATION><RA_OF_ASC_NODE>80.4372</RA_OF_ASC_NODE><ARG_OF_PERICENTER>97.3417</ARG_OF_PERICENTER><MEAN_ANOMALY>262.8027</MEAN_ANOMALY></meanElements><tleParameters><EPHEMERIS_TYPE>0</EPHEMERIS_TYPE><CLASSIFICATION_TYPE>U</CLASSIFICATION_TYPE><NORAD_CAT_ID>24944</NORAD_CAT_ID><ELEMENT_SET_NO>999</ELEMENT_SET_NO><REV_AT_EPOCH>47497</REV_AT_EPOCH><BSTAR>.35478E-3</BSTAR><MEAN_MOTION_DOT>.1063E-4</MEAN_MOTION_DOT><MEAN_MOTION_DDOT>0</MEAN_MOTION_DDOT></tleParameters></data></segment></body></omm>
<omm id="CCSDS_OMM_VERS" version="2.0">
<header><CREATION_DATE/><ORIGINATOR/></header><body><segment><metadata><OBJECT_NAME>IRIDIUM 33</OBJECT_NAME><OBJECT_ID>1997-051C</OBJECT_ID><CENTER_NAME>EARTH</CENTER_NAME><REF_FRAME>TEME</REF_FRAME><TIME_SYSTEM>UTC</TIME_SYSTEM><MEAN_ELEMENT_THEORY>SGP4</MEAN_ELEMENT_THEORY></metadata><data><meanElements><EPOCH>2025-11-15T10:36:54.504000</EPOCH><MEAN_MOTION>14.35008274</MEAN_MOTION><ECCENTRICITY>.0006217</ECCENTRICITY><INCLINATION>86.3857</INCLINATION><RA_OF_ASC_NODE>79.6783</RA_OF_ASC_NODE><ARG_OF_PERICENTER>314.4673</ARG_OF_PERICENTER><MEAN_ANOMALY>45.6014</MEAN_ANOMALY></meanElements><tleParameters><EPHEMERIS_TYPE>0</EPHEMERIS_TYPE><CLASSIFICATION_TYPE>U</CLASSIFICATION_TYPE><NORAD_CAT_ID>24946</NORAD_CAT_ID><ELEMENT_SET_NO>999</ELEMENT_SET_NO><REV_AT_EPOCH>47443</REV_AT_EPOCH><BSTAR>.26009E-3</BSTAR><MEAN_MOTION_DOT>.76E-5</MEAN_MOTION_DOT><MEAN_MOTION_DDOT>0</MEAN_MOTION_DDOT></tleParameters></data></segment></body></omm>
<omm id="CCSDS_OMM_VERS" version="2.0">
<header><CREATION_DATE/><ORIGINATOR/></header><body><segment><metadata><OBJECT_NAME>IRIDIUM 28</OBJECT_NAME><OBJECT_ID>1997-051E</OBJECT_ID><CENTER_NAME>EARTH</CENTER_NAME><REF_FRAME>TEME</REF_FRAME><TIME_SYSTEM>UTC</TIME_SYSTEM><MEAN_ELEMENT_THEORY>SGP4</MEAN_ELEMENT_THEORY></metadata><data><meanElements><EPOCH>2025-11-15T09:07:16.529088</EPOCH><MEAN_MOTION>14.37527932</MEAN_MOTION><ECCENTRICITY>.0001649</ECCENTRICITY><INCLINATION>86.3947</INCLINATION><RA_OF_ASC_NODE>77.8580</RA_OF_ASC_NODE><ARG_OF_PERICENTER>82.4570</ARG_OF_PERICENTER><MEAN_ANOMALY>277.6815</MEAN_ANOMALY></meanElements><tleParameters><EPHEMERIS_TYPE>0</EPHEMERIS_TYPE><CLASSIFICATION_TYPE>U</CLASSIFICATION_TYPE><NORAD_CAT_ID>24948</NORAD_CAT_ID><ELEMENT_SET_NO>999</ELEMENT_SET_NO><REV_AT_EPOCH>47556</REV_AT_EPOCH><BSTAR>.31992E-3</BSTAR><MEAN_MOTION_DOT>.977E-5</MEAN_MOTION_DOT><MEAN_MOTION_DDOT>0</MEAN_MOTION_DDOT></tleParameters></data></segment></body></omm>
<omm id="CCSDS_OMM_VERS" version="2.0">
<header><CREATION_DATE/><ORIGINATOR/></header><body><segment><metadata><OBJECT_NAME>IRIDIUM 36</OBJECT_NAME><OBJECT_ID>1997-056C</OBJECT_ID><CENTER_NAME>EARTH</CENTER_NAME><REF_FRAME>TEME</REF_FRAME><TIME_SYSTEM>UTC</TIME_SYSTEM><MEAN_ELEMENT_THEORY>SGP4</MEAN_ELEMENT_THEORY></metadata><data><meanElements><EPOCH>2025-11-15T11:00:51.799968</EPOCH><MEAN_MOTION>14.37748024</MEAN_MOTION><ECCENTRICITY>.0001789</ECCENTRICITY><INCLINATION>86.3937</INCLINATION><RA_OF_ASC_NODE>109.4568</RA_OF_ASC_NODE><ARG_OF_PERICENTER>91.9529</ARG_OF_PERICENTER><MEAN_ANOMALY>268.1874</MEAN_ANOMALY></meanElements><tleParameters><EPHEMERIS_TYPE>0</EPHEMERIS_TYPE><CLASSIFICATION_TYPE>U</CLASSIFICATION_TYPE><NORAD_CAT_ID>24967</NORAD_CAT_ID><ELEMENT_SET_NO>999</ELEMENT_SET_NO><REV_AT_EPOCH>47395</REV_AT_EPOCH><BSTAR>.32472E-3</BSTAR><MEAN_MOTION_DOT>.996E-5</MEAN_MOTION_DOT><MEAN_MOTION_DDOT>0</MEAN_MOTION_DDOT></tleParameters></data></segment></body></omm>

</ndm>
