IRIDIUM 26              
1 24903U 97043A   25319.26936549  .00000904  00000+0  29681-3 0  9996
2 24903  86.3979  47.1045 0001965  91.2789 268.8633 14.37295963478442
IRIDIUM 22              
1 24907U 97043E   25319.32468891  .00000829  00000+0  27838-3 0  9995
2 24907  86.3980  50.7508 0002004  96.6358 263.5067 14.36093416478461
DUMMY MASS 1            
1 24925U 97048A   25319.35275527  .00000968  00000+0  10468-3 0  9990
2 24925  86.3349  65.3767 0005834 351.2984   8.8138 14.87146785527590
DUMMY MASS 2            
1 24926U 97048B   25319.27284506  .00000962  00000+0  10461-3 0  9996
2 24926  86.3347  67.0497 0007059   1.2830 358.8411 14.86897332527357
IRIDIUM 29              
1 24944U 97051A   25319.36269780  .00001063  00000+0  35478-3 0  9995
2 24944  86.3942  80.4372 0002177  97.3417 262.8027 14.36625955474973
IRIDIUM 33              
1 24946U 97051C   25319.44229750  .00000760  00000+0  26009-3 0  9992
2 24946  86.3857  79.6783 0006217 314.4673  45.6014 14.35008274474434
IRIDIUM 28              
1 24948U 97051E   25319.38005242  .00000977  00000+0  31992-3 0  9992
2 24948  86.3947  77.8580 0001649  82.4570 277.6815 14.37527932475563
IRIDIUM 36              
1 24967U 97056C   25319.45893287  .00000996  00000+0  32472-3 0  9995
2 24967  86.3937 109.4568 0001789  91.9529 268.1874 14.37748024473953
